SEEDS II (CO-66)        
1 32791U 08021J   26068.92109284  .00023758  00000+0  84213-3 0  9995
2 32791  97.7519  62.3611 0001448 359.2618   0.8619 15.29097235972108
STARLINK-31316          
1 59090U 24041S   26068.82427263 -.00000822  00000+0 -20342-4 0  9998
2 59090  42.9979 263.1239 0001189 269.8888  90.1827 15.27573257114770
