[{"OBJECT_NAME":"SEEDS II (CO-66)","OBJECT_ID":"2008-021J","EPOCH":"2026-03-09T22:06:22.421376","MEAN_MOTION":15.29097236,"ECCENTRICITY":0.00014475,"INCLINATION":97.7519,"RA_OF_ASC_NODE":62.3611,"ARG_OF_PERICENTER":359.2618,"MEAN_ANOMALY":0.8619,"EPHEMERIS_TYPE":0,"CLASSIFICATION_TYPE":"U","NORAD_CAT_ID":32791,"ELEMENT_SET_NO":999,"REV_AT_EPOCH":97210,"BSTAR":0.00084213052,"MEAN_MOTION_DOT":0.00023758,"MEAN_MOTION_DDOT":0},{"OBJECT_NAME":"STARLINK-31316","OBJECT_ID":"2024-041S","EPOCH":"2026-03-09T19:46:57.155232","MEAN_MOTION":15.27573257,"ECCENTRICITY":0.00011894,"INCLINATION":42.9979,"RA_OF_ASC_NODE":263.1239,"ARG_OF_PERICENTER":269.8888,"MEAN_ANOMALY":90.1827,"EPHEMERIS_TYPE":0,"CLASSIFICATION_TYPE":"U","NORAD_CAT_ID":59090,"ELEMENT_SET_NO":999,"REV_AT_EPOCH":11477,"BSTAR":-2.0342361e-5,"MEAN_MOTION_DOT":-8.22e-6,"MEAN_MOTION_DDOT":0}]
